NORAD_CAT_ID,OBJECT_NAME,OBJECT_TYPE,EPOCH,MEAN_MOTION,ECCENTRICITY,INCLINATION,RA_OF_ASC_NODE,ARG_OF_PERICENTER,MEAN_ANOMALY,BSTAR,MEAN_MOTION_DOT,MEAN_MOTION_DDOT,TLE_LINE0,TLE_LINE1,TLE_LINE2,SEMIMAJOR_AXIS,PERIOD,APOGEE,PERIGEE,DECAYED
54070.0,STARLINK-5181,PAYLOAD,2024-03-15 01:24:44,15.0883948,0.0001212,53.2176,356.8101,101.4377,258.6752,-1.0287e-05,-4.52e-06,0.0,0 STARLINK-5181,1 54070U 22136V   24075.05884892 -.00000452  00000-0 -10287-4 0  9997,2 54070  53.2176 356.8101 0001212 101.4377 258.6752 15.08839480 77932,6917.882,95.438,540.585,538.909,0.0
54070.0,STARLINK-5181,PAYLOAD,2024-03-15 22:04:45,15.08835456,0.0001321,53.2177,352.944,101.8661,258.248,4.3381e-05,4.03e-06,0.0,0 STARLINK-5181,1 54070U 22136V   24075.91997059  .00000403  00000-0  43381-4 0  9997,2 54070  53.2177 352.9440 0001321 101.8661 258.2480 15.08835456 77581,6917.894,95.438,540.673,538.845,0.0
54070.0,STARLINK-5181,PAYLOAD,2024-03-15 23:40:08,15.08835818,0.0001338,53.2179,352.6465,102.9039,257.2103,4.2776e-05,3.93e-06,0.0,0 STARLINK-5181,1 54070U 22136V   24075.98621048  .00000393  00000-0  42776-4 0  9991,2 54070  53.2179 352.6465 0001338 102.9039 257.2103 15.08835818 77590,6917.893,95.438,540.684,538.833,0.0
54070.0,STARLINK-5181,PAYLOAD,2024-03-16 18:44:46,15.08834691,0.0001257,53.2182,349.0775,96.6957,263.4179,7.1995e-05,8.58e-06,0.0,0 STARLINK-5181,1 54070U 22136V   24076.78109194  .00000858  00000-0  71995-4 0  9994,2 54070  53.2182 349.0775 0001257  96.6957 263.4179 15.08834691 78193,6917.897,95.438,540.631,538.892,0.0
54070.0,STARLINK-5181,PAYLOAD,2024-03-16 21:55:32,15.08832898,0.0001272,53.2183,348.4827,97.41,262.7037,5.5797e-05,6e-06,0.0,0 STARLINK-5181,1 54070U 22136V   24076.91357412  .00000600  00000-0  55797-4 0  9994,2 54070  53.2183 348.4827 0001272  97.4100 262.7037 15.08832898 77732,6917.902,95.438,540.647,538.887,0.0
54070.0,STARLINK-5181,PAYLOAD,2024-03-17 01:06:19,15.08833178,0.0001299,53.2185,347.8881,99.6258,260.4881,5.6582e-05,6.13e-06,0.0,0 STARLINK-5181,1 54070U 22136V   24077.04605441  .00000613  00000-0  56582-4 0  9994,2 54070  53.2185 347.8881 0001299  99.6258 260.4881 15.08833178 77750,6917.901,95.438,540.665,538.868,0.0
54070.0,STARLINK-5181,PAYLOAD,2024-03-17 21:46:19,15.08837786,0.0001301,53.2187,344.0226,96.379,263.735,6.6802e-05,7.75e-06,0.0,0 STARLINK-5181,1 54070U 22136V   24077.90717356  .00000775  00000-0  66802-4 0  9993,2 54070  53.2187 344.0226 0001301  96.3790 263.7350 15.08837786 78367,6917.887,95.438,540.652,538.852,0.0
54070.0,STARLINK-5181,PAYLOAD,2024-03-18 02:32:28,15.08841437,0.000134,53.2189,343.1303,94.6474,265.4671,9.3053e-05,1.193e-05,0.0,0 STARLINK-5181,1 54070U 22136V   24078.10589089  .00001193  00000-0  93053-4 0  9999,2 54070  53.2189 343.1303 0001340  94.6474 265.4671 15.08841437 77911,6917.876,95.437,540.668,538.814,0.0
54070.0,STARLINK-5181,PAYLOAD,2024-03-18 21:37:08,15.08788416,0.0001642,53.2196,339.5622,96.1004,264.0175,0.00061335,9.473e-05,0.0,0 STARLINK-5181,1 54070U 22136V   24078.90079143  .00009473  00000-0  61335-3 0  9998,2 54070  53.2196 339.5622 0001642  96.1004 264.0175 15.08788416 78038,6918.038,95.441,541.039,538.767,0.0
54070.0,STARLINK-5181,PAYLOAD,2024-03-19 02:23:17,15.08828213,0.0001355,53.2193,338.6707,94.2782,265.8365,-3.2242e-06,-3.39e-06,0.0,0 STARLINK-5181,1 54070U 22136V   24079.09950548 -.00000339  00000-0 -32242-5 0  9997,2 54070  53.2193 338.6707 0001355  94.2782 265.8365 15.08828213 78548,6917.916,95.438,540.719,538.844,0.0
54070.0,STARLINK-5181,PAYLOAD,2024-03-19 21:27:53,15.08849748,0.000113,53.219,335.1007,102.7902,257.3216,8.7621e-05,1.107e-05,0.0,0 STARLINK-5181,1 54070U 22136V   24079.89436744  .00001107  00000-0  87621-4 0  9994,2 54070  53.2190 335.1007 0001130 102.7902 257.3216 15.08849748 78660,6917.851,95.437,540.497,538.934,0.0
54070.0,STARLINK-5181,PAYLOAD,2024-03-20 00:38:39,15.08854695,0.0001737,53.2202,334.5073,75.2524,284.866,0.00015228,2.137e-05,0.0,0 STARLINK-5181,1 54070U 22136V   24080.02684466  .00002137  00000-0  15228-3 0  9994,2 54070  53.2202 334.5073 0001737  75.2524 284.8660 15.08854695 78202,6917.835,95.437,540.902,538.499,0.0
54070.0,STARLINK-5181,PAYLOAD,2024-03-20 21:18:40,15.08841645,0.0001215,53.2192,330.6415,109.8615,250.2508,0.00015336,2.154e-05,0.0,0 STARLINK-5181,1 54070U 22136V   24080.88796916  .00002154  00000-0  15336-3 0  9991,2 54070  53.2192 330.6415 0001215 109.8615 250.2508 15.08841645 78819,6917.875,95.437,540.581,538.9,0.0
54070.0,STARLINK-5181,PAYLOAD,2024-03-20 22:54:03,15.08840773,0.000132,53.2193,330.3439,138.2649,221.8444,0.00013874,1.921e-05,0.0,0 STARLINK-5181,1 54070U 22136V   24080.95420830  .00001921  00000-0  13874-3 0  9994,2 54070  53.2193 330.3439 0001320 138.2649 221.8444 15.08840773 78345,6917.878,95.438,540.656,538.83,0.0
54070.0,STARLINK-5181,PAYLOAD,2024-03-21 02:04:50,15.08835021,0.0001175,53.219,329.7544,123.6245,236.4859,8.8685e-05,1.124e-05,0.0,0 STARLINK-5181,1 54070U 22136V   24081.08669454  .00001124  00000-0  88685-4 0  9994,2 54070  53.2190 329.7544 0001175 123.6245 236.4859 15.08835021 78846,6917.896,95.438,540.573,538.948,0.0
54070.0,STARLINK-5181,PAYLOAD,2024-03-21 10:01:46,15.08831286,0.0001324,53.2207,328.2644,89.275,270.8394,6.701e-05,7.78e-06,0.0,0 STARLINK-5181,1 54070U 22136V   24081.41789985  .00000778  00000-0  67010-4 0  9996,2 54070  53.2207 328.2644 0001324  89.2750 270.8394 15.08831286 78412,6917.907,95.438,540.688,538.856,0.0
54070.0,STARLINK-5181,PAYLOAD,2024-03-21 21:09:28,15.088374,0.0002268,53.2185,326.1812,14.2311,345.8745,-0.00023037,-3.953e-05,0.0,0 STARLINK-5181,1 54070U 22136V   24081.88157681 -.00003953  00000-0 -23037-3 0  9999,2 54070  53.2185 326.1812 0002268  14.2311 345.8745 15.08837400 78967,6917.888,95.438,541.322,538.184,0.0
54070.0,STARLINK-5181,PAYLOAD,2024-03-21 22:44:50,15.08841251,0.0001327,53.2193,325.8827,80.7093,279.405,-0.00020693,-3.58e-05,0.0,0 STARLINK-5181,1 54070U 22136V   24081.94781115 -.00003580  00000-0 -20693-3 0  9992,2 54070  53.2193 325.8827 0001327  80.7093 279.4050 15.08841251 78496,6917.877,95.437,540.66,538.824,0.0
54070.0,STARLINK-5181,PAYLOAD,2024-03-22 01:55:37,15.0884041,0.0001521,53.2196,325.2873,74.6613,285.4547,-0.00016077,-2.846e-05,0.0,0 STARLINK-5181,1 54070U 22136V   24082.08029080 -.00002846  00000-0 -16077-3 0  9999,2 54070  53.2196 325.2873 0001521  74.6613 285.4547 15.08840410 78999,6917.879,95.438,540.796,538.692,0.0
54070.0,STARLINK-5181,PAYLOAD,2024-03-22 21:00:15,15.08824446,0.0001126,53.2186,321.7206,90.3386,269.7735,8.2982e-06,-1.56e-06,0.0,0 STARLINK-5181,1 54070U 22136V   24082.87517663 -.00000156  00000-0  82982-5 0  9996,2 54070  53.2186 321.7206 0001126  90.3386 269.7735 15.08824446 79112,6917.928,95.439,540.572,539.014,0.0
54070.0,STARLINK-5181,PAYLOAD,2024-03-22 22:35:37,15.08840449,0.0001731,53.2192,321.4255,36.5514,323.5596,0.0001396,1.934e-05,0.0,0 STARLINK-5181,1 54070U 22136V   24082.94140680  .00001934  00000-0  13960-3 0  9997,2 54070  53.2192 321.4255 0001731  36.5514 323.5596 15.08840449 78649,6917.879,95.438,540.942,538.547,0.0
54070.0,STARLINK-5181,PAYLOAD,2024-03-23 01:46:23,15.08838578,8.36e-05,53.2191,320.8306,77.845,282.2636,0.00011388,1.525e-05,0.0,0 STARLINK-5181,1 54070U 22136V   24083.07388655  .00001525  00000-0  11388-3 0  9996,2 54070  53.2191 320.8306 0000836  77.8450 282.2636 15.08838578 79142,6917.885,95.438,540.328,539.171,0.0
54070.0,STARLINK-5181,PAYLOAD,2024-03-23 22:26:25,15.08829403,0.0001359,53.2193,316.9612,91.2573,268.8575,0.00014083,1.953e-05,0.0,0 STARLINK-5181,1 54070U 22136V   24083.93501165  .00001953  00000-0  14083-3 0  9994,2 54070  53.2193 316.9612 0001359  91.2573 268.8575 15.08829403 78796,6917.913,95.438,540.718,538.838,0.0
54070.0,STARLINK-5181,PAYLOAD,2024-03-24 07:58:42,15.08852093,0.0001873,53.2188,315.1767,70.5339,289.5855,0.00032196,4.841e-05,0.0,0 STARLINK-5181,1 54070U 22136V   24084.33243555  .00004841  00000-0  32196-3 0  9999,2 54070  53.2188 315.1767 0001873  70.5339 289.5855 15.08852093 79336,6917.843,95.437,541.004,538.413,0.0
54070.0,STARLINK-5181,PAYLOAD,2024-03-24 22:17:13,15.08828332,0.0001091,53.2183,312.5001,64.7458,295.3647,0.0001283,1.754e-05,0.0,0 STARLINK-5181,1 54070U 22136V   24084.92862593  .00001754  00000-0  12830-3 0  9996,2 54070  53.2183 312.5001 0001091  64.7458 295.3647 15.08828332 79425,6917.916,95.438,540.536,539.026,0.0
54070.0,STARLINK-5181,PAYLOAD,2024-03-25 07:49:30,15.08851723,0.0001936,53.2185,310.716,44.2993,315.8154,0.00013484,1.859e-05,0.0,0 STARLINK-5181,1 54070U 22136V   24085.32605190  .00001859  00000-0  13484-3 0  9991,2 54070  53.2185 310.7160 0001936  44.2993 315.8154 15.08851723 79485,6917.845,95.437,541.049,538.37,0.0
54070.0,STARLINK-5181,PAYLOAD,2024-03-25 20:32:35,15.08868196,0.0001196,53.2179,308.337,87.0904,273.0226,0.00030542,4.58e-05,0.0,0 STARLINK-5181,1 54070U 22136V   24085.85596065  .00004580  00000-0  30542-3 0  9997,2 54070  53.2179 308.3370 0001196  87.0904 273.0226 15.08868196 79565,6917.794,95.436,540.487,538.832,0.0
54070.0,STARLINK-5181,PAYLOAD,2024-03-25 22:07:57,15.08869795,0.0001207,53.2179,308.0396,76.1547,283.9579,0.00031683,4.762e-05,0.0,0 STARLINK-5181,1 54070U 22136V   24085.92219896  .00004762  00000-0  31683-3 0  9998,2 54070  53.2179 308.0396 0001207  76.1547 283.9579 15.08869795 79090,6917.789,95.436,540.489,538.819,0.0
54070.0,STARLINK-5181,PAYLOAD,2024-03-26 07:40:16,15.08874568,0.0001261,53.2179,306.2597,72.4299,287.6831,0.00022539,3.304e-05,0.0,0 STARLINK-5181,1 54070U 22136V   24086.31963227  .00003304  00000-0  22539-3 0  9997,2 54070  53.2179 306.2597 0001261  72.4299 287.6831 15.08874568 79159,6917.775,95.435,540.512,538.767,0.0
54070.0,STARLINK-5181,PAYLOAD,2024-03-26 20:23:25,15.08818577,0.0001293,53.2184,303.8796,77.563,282.5507,7.1376e-05,8.48e-06,0.0,0 STARLINK-5181,1 54070U 22136V   24086.84959536  .00000848  00000-0  71376-4 0  9997,2 54070  53.2184 303.8796 0001293  77.5630 282.5507 15.08818577 79713,6917.946,95.439,540.705,538.916,0.0
